[{"OBJECT_NAME":"STARLINK-4367","OBJECT_ID":"2022-084AS","EPOCH":"2026-03-09T18:05:37.658976","MEAN_MOTION":15.05648768,"ECCENTRICITY":9.235e-5,"INCLINATION":97.6027,"RA_OF_ASC_NODE":131.2595,"ARG_OF_PERICENTER":95.504,"MEAN_ANOMALY":264.6292,"EPHEMERIS_TYPE":0,"CLASSIFICATION_TYPE":"U","NORAD_CAT_ID":53229,"ELEMENT_SET_NO":999,"REV_AT_EPOCH":19939,"BSTAR":-2.2863299e-5,"MEAN_MOTION_DOT":-3.91e-6,"MEAN_MOTION_DDOT":0},{"OBJECT_NAME":"COSMOS 397 DEB","OBJECT_ID":"1971-015DW","EPOCH":"2026-03-09T03:04:47.479584","MEAN_MOTION":14.84951431,"ECCENTRICITY":0.01922698,"INCLINATION":65.6672,"RA_OF_ASC_NODE":330.2096,"ARG_OF_PERICENTER":116.44,"MEAN_ANOMALY":245.6588,"EPHEMERIS_TYPE":0,"CLASSIFICATION_TYPE":"U","NORAD_CAT_ID":21723,"ELEMENT_SET_NO":999,"REV_AT_EPOCH":75672,"BSTAR":0.0022623994,"MEAN_MOTION_DOT":0.00026928,"MEAN_MOTION_DDOT":0}]
